CAS-2T & KS-1Q          
1 41847U 16066G   20292.77524083  .00000077  00000-0  22501-4 0  9992
2 41847  98.6396 344.4454 0364889 221.2458 136.0635 14.38099180207148
NAYIF-1 (EO-88)         
1 42017U 17008BX  20292.77337798  .00001743  00000-0  68830-4 0  9990
2 42017  97.3479 358.4786 0004701 236.8965 123.1823 15.26848505204366
ZHUHAI-1 02 (CAS-4B)    
1 42759U 17034B   20293.10940972  .00000105  00000-0  19818-4 0  9997
2 42759  43.0182  67.6095 0009146  87.3380 255.3601 15.09909949184650
ZHUHAI-1 01 (CAS-4A)    
1 42761U 17034D   20292.87737340  .00000105  00000-0  19805-4 0  9992
2 42761  43.0182  68.0993 0009767  84.5467  53.6555 15.09989075184621
MAX VALIER SAT          
1 42778U 17036P   20292.88506960  .00001012  00000-0  46145-4 0  9990
2 42778  97.2910 343.0261 0010725 313.4083  46.6260 15.22834829184511
RADFXSAT (FOX-1B)       
1 43017U 17073E   20292.72425961  .00001004  00000-0  82890-4 0  9990
2 43017  97.7149 200.1610 0256938   8.9886 351.5797 14.79069958157385
FOX-1D (AO-92)          
1 43137U 18004AC  20292.77286352  .00001128  00000-0  48980-4 0  9991
2 43137  97.4350   3.0405 0008698 353.0131   7.0984 15.24360797153839
DIWATA-2B               
1 43678U 18084H   20293.10519139  .00000404  00000-0  45930-4 0  9997
2 43678  97.8980  51.6021 0011120 123.5101 236.7185 14.91662236107453
ES'HAIL 2               
1 43700U 18090A   20293.09826743  .00000135  00000-0  00000+0 0  9995
2 43700   0.0205 129.0689 0001788  98.0485 222.1200  1.00274056  7197
FOX-1CLIFF (AO-95)      
1 43770U 18099N   20292.86066401  .00000299  00000-0  32422-4 0  9991
2 43770  97.6948   2.0226 0015546 141.2193 219.0146 14.95063594102350
ITASAT 1                
1 43786U 18099AE  20293.16460612  .00000245  00000-0  27358-4 0  9997
2 43786  97.6968   2.8288 0016312 133.7230 226.5345 14.95396170102426
JY1SAT (JO-97)          
1 43803U 18099AX  20293.16395894  .00000328  00000-0  34667-4 0  9999
2 43803  97.6929   2.6191 0016283 133.8971 226.3598 14.95588449102424
PSAT2 (NO-104)          
1 44354U 19036R   20293.16816459  .00010428  00000-0  14754-3 0  9994
2 44354  28.5306 286.8091 0355395 194.3848 164.6394 15.05742401 72468
BRICSAT2 (NO-103)       
1 44355U 19036S   20292.65417049  .00018196  00000-0  24195-3 0  9990
2 44355  28.5307 273.7793 0325970 215.5693 142.2761 15.13217323 72564
JAISAT-1                
1 44419U 19038F   20292.90895316  .00001193  00000-0  70970-4 0  9990
2 44419  97.5540 253.1672 0023073  66.8772 293.4888 15.12982072 71266
DUCHIFAT-3              
1 44854U 19089C   20292.78286069  .00000413  00000-0  39728-4 0  9994
2 44854  36.9663  89.4551 0009667 336.8607  23.1698 14.99157477 46815
RS-44 & BREEZE-KM R/B   
1 44909U 19096E   20293.04288658 -.00000004  00000-0 -54714-4 0  9999
2 44909  82.5174 273.1851 0216413 297.7274  60.2025 12.79708562 37997
ORBITAL FACTORY 2 (OF-2)
1 45113U 19071C   20292.84233169  .00002108  00000-0  74794-4 0  9999
2 45113  51.6414 127.3045 0013399 140.2381 219.9585 15.33824827 40065
HUSKYSAT-1              
1 45119U 19071J   20292.73939480  .00002048  00000-0  72599-4 0  9996
2 45119  51.6425 127.3674 0012678 136.5937 223.6046 15.34005826 40048
SALSAT                  
1 46495U 20068K   20292.78247516 -.00000047  00000-0  10888-5 0  9991
2 46495  97.6647 226.0808 0016887 165.9343 194.2338 15.03212409  3028
